STARLINK-6356           
1 57363U 23099AM  24062.77595021 -.00001729  00000+0 -11291-3 0  9994
2 57363  43.0016 280.2980 0001223 265.4605  94.6098 15.02549321 35416
STARLINK-6338           
1 57364U 23099AN  24062.70170630  .00003719  00000+0  29022-3 0  9993
2 57364  42.9997 280.6006 0001039 260.7304  99.3421 15.02534522 35403
STARLINK-5007           
1 57365U 23099AP  24062.82577663  .00002916  00000+0  23083-3 0  9993
2 57365  43.0017 279.8045 0001459 268.7343  91.3332 15.02541300 35426
STARLINK-6174           
1 57366U 23099AQ  24061.63139849 -.00000513  00000+0 -22912-4 0  9996
2 57366  43.0001 286.3302 0000808 278.0254  82.0497 15.02544854 35933
STARLINK-6215           
1 57367U 23099AR  24061.62610447 -.00000070  00000+0  98829-5 0  9992
2 57367  43.0030 273.2588 0001195 271.9319  88.1387 15.02533852 36135
STARLINK-6218           
1 57368U 23099AS  24061.69232954  .00001206  00000+0  10430-3 0  9994
2 57368  43.0006 285.9271 0001177 274.9255  85.1453 15.02539661 35257
STARLINK-6168           
1 57369U 23099AT  24061.70121022  .00000376  00000+0  42913-4 0  9999
2 57369  43.0017 285.9936 0001358 268.2451  91.8236 15.02535982 35258
STARLINK-5353           
1 57370U 23099AU  24062.88227272 -.00000133  00000+0  52428-5 0  9990
2 57370  43.0017 279.3737 0001294 267.5353  92.5342 15.02534078 35439
STARLINK-6032           
1 57371U 23099AV  24061.69454889  .00000788  00000+0  73376-4 0  9994
2 57371  43.0002 285.9438 0001282 272.2378  87.8318 15.02536530 35257
STARLINK-5975           
1 57372U 23099AW  24062.74154287  .00000598  00000+0  59324-4 0  9997
2 57372  43.0005 280.0303 0001010 279.7907  80.2822 15.02541188 35417
STARLINK-6370           
1 57373U 23099AX  24061.68899947  .00000345  00000+0  40638-4 0  9997
2 57373  43.0010 285.9015 0001296 272.1449  87.9245 15.02538028 35256
STARLINK-6369           
1 57374U 23099AY  24062.85266816 -.00001480  00000+0 -94446-4 0  9990
2 57374  43.0045 266.9911 0001637 264.1289  95.9367 15.02546795 35570
STARLINK-6363           
1 57375U 23099AZ  24062.88115511  .00001064  00000+0  93811-4 0  9990
2 57375  43.0018 279.3660 0001476 266.5462  93.5211 15.02541183 35433
STARLINK-6367           
1 57376U 23099BA  24062.87116605  .00000114  00000+0  23482-4 0  9997
2 57376  43.0019 279.2895 0001299 268.9739  91.0955 15.02541936 35434
STARLINK-6358           
1 57377U 23099BB  24061.67900850  .00001999  00000+0  16301-3 0  9991
2 57377  42.9983 285.8270 0001415 276.5940  83.4741 15.02539002 35251
STARLINK-6364           
1 57378U 23099BC  24062.89609596  .00009500  00000+0  71715-3 0  9996
2 57378  43.0022 253.4593 0001394 265.9271  94.1412 15.02546575 36474
STARLINK-6361           
1 57379U 23099BD  24062.87227568  .00000601  00000+0  59541-4 0  9997
2 57379  43.0027 279.2994 0001514 275.1917  84.8753 15.02541653 35436
STARLINK-6366           
1 57380U 23099BE  24062.69555583  .00001921  00000+0  15723-3 0  9999
2 57380  43.0024 254.5300 0001317 276.7959  83.2733 15.02540462 36435
STARLINK-6371           
1 57381U 23099BF  24062.68643201  .00010536  00000+0  79445-3 0  9997
2 57381  43.0019 267.4641 0001270 262.8732  97.1966 15.02506109 36290
STARLINK-30240          
1 57404U 23102A   24062.78344663  .00001508  00000+0  12669-3 0  9993
2 57404  42.9996 293.2679 0000853 264.6993  95.3752 15.02538124 35385
STARLINK-30192          
1 57405U 23102B   24062.78011512  .00002005  00000+0  16342-3 0  9993
2 57405  42.9995 293.2247 0000861 283.4934  76.5812 15.02541616 35387
STARLINK-30195          
1 57406U 23102C   24062.77679448  .00001627  00000+0  13547-3 0  9994
2 57406  42.9941 293.2191 0001147 350.7256   9.3564 15.02539365 35386
STARLINK-30207          
1 57407U 23102D   24062.74377118 -.00001338  00000+0 -84013-4 0  9999
2 57407  43.0016 280.0459 0001186 268.0253  92.0454 15.02525665 35547
STARLINK-30205          
1 57408U 23102E   24061.96907347  .00007530  00000+0  57179-3 0  9996
2 57408  43.0028 297.4809 0001254 269.3008  90.7691 15.02540922 35260
STARLINK-30222          
1 57409U 23102F   24061.69316795  .00001218  00000+0  10522-3 0  9996
2 57409  43.0008 298.8520 0001354 277.6363  82.4325 15.02543965 35229
STARLINK-30172          
1 57410U 23102G   24062.76347298  .00002556  00000+0  20419-3 0  9991
2 57410  43.0013 293.1022 0001193 268.7052  91.3654 15.02544513 35380
STARLINK-30214          
1 57411U 23102H   24062.00224427  .00003815  00000+0  29724-3 0  9994
2 57411  43.0009 296.8748 0001463 273.4880  86.5795 15.02547184 35225
STARLINK-30182          
1 57412U 23102J   24062.76014100  .00000580  00000+0  58032-4 0  9994
2 57412  43.0029 293.0921 0001114 263.6785  96.3931 15.02538202 35387
STARLINK-30191          
1 57413U 23102K   24062.08536740  .00002979  00000+0  23539-3 0  9996
2 57413  43.0029 296.6311 0001405 262.0170  98.0513 15.02553413 35289
STARLINK-30193          
1 57414U 23102L   24061.95574548  .00002286  00000+0  18422-3 0  9996
2 57414  43.0023 297.3785 0001582 279.5360  80.5303 15.02547343 35263
STARLINK-30208          
1 57415U 23102M   24062.08203283  .00001137  00000+0  99153-4 0  9992
2 57415  43.0039 296.6023 0001530 253.5864 106.4810 15.02553832 35230
STARLINK-30224          
1 57416U 23102N   24062.07870823  .00017890  00000+0  13350-2 0  9998
2 57416  43.0020 296.5783 0001380 276.8748  83.1938 15.02565064 35282
STARLINK-30043          
1 57417U 23102P   24061.93908642 -.00005217  00000+0 -37135-3 0  9994
2 57417  43.0034 297.2509 0001501 274.0073  86.0597 15.02541570 35265
STARLINK-30221          
1 57418U 23102Q   24062.07537624  .00003872  00000+0  30142-3 0  9993
2 57418  43.0028 296.5533 0001564 284.2064  75.8604 15.02553676 35287
STARLINK-30189          
1 57430U 23105A   24062.64026409  .00001743  00000+0  14401-3 0  9992
2 57430  42.9996 307.0458 0001121 202.3505 157.7289 15.02542584 34641
STARLINK-30170          
1 57431U 23105B   24062.10510690  .00003064  00000+0  24170-3 0  9996
2 57431  43.0041 309.9140 0001282 261.2055  98.8642 15.02545888 34611
STARLINK-30188          
1 57432U 23105C   24062.89952387  .00001950  00000+0  15941-3 0  9994
2 57432  43.0037 305.5530 0001766 269.6049  90.4591 15.02532927 34693
STARLINK-30105          
1 57433U 23105D   24062.81150573  .00026178  00000+0  89016-3 0  9997
2 57433  43.0001 270.0569 0006963 272.3904  87.6151 15.29940206 35196
STARLINK-30102          
1 57434U 23105E   24061.69625702  .00002179  00000+0  17632-3 0  9994
2 57434  42.9997 312.0049 0001281 272.9745  87.0951 15.02543200 34494
STARLINK-30180          
1 57435U 23105F   24061.83253328 -.00004604  00000+0 -32572-3 0  9999
2 57435  43.0011 311.3042 0001170 275.1149  84.9559 15.02562375 34662
STARLINK-30183          
1 57436U 23105G   24061.69292788 -.00003997  00000+0 -28097-3 0  9998
2 57436  43.0024 311.9793 0001815 273.2586  86.8048 15.02530644 34552
STARLINK-30237          
1 57437U 23105H   24061.95217538  .00001690  00000+0  14013-3 0  9997
2 57437  43.0031 310.4815 0001353 271.0860  88.9828 15.02543943 34586
STARLINK-30158          
1 57438U 23105J   24062.88620040  .00002301  00000+0  18539-3 0  9994
2 57438  43.0045 305.4565 0001391 276.8897  83.1787 15.02535074 34726
STARLINK-30173          
1 57439U 23105K   24062.90635422  .00001174  00000+0  10194-3 0  9994
2 57439  43.0035 292.0269 0001548 278.3167  81.7500 15.02543536 34885
STARLINK-30159          
1 57440U 23105L   24061.94885346  .00000454  00000+0  48700-4 0  9996
2 57440  43.0046 310.4571 0001230 281.2016  78.8688 15.02531425 34422
STARLINK-30160          
1 57441U 23105M   24061.94551286  .00001682  00000+0  13953-3 0  9995
2 57441  43.0024 310.4330 0001842 252.2765 107.7876 15.02548636 34423
STARLINK-30146          
1 57442U 23105N   24061.94219034  .00001236  00000+0  10658-3 0  9992
2 57442  43.0029 310.4094 0001456 264.7324  95.3353 15.02538760 34649
STARLINK-30197          
1 57443U 23105P   24061.67294951  .00001946  00000+0  15902-3 0  9999
2 57443  42.9988 311.8279 0000851 279.1831  80.8915 15.02543407 34549
STARLINK-30181          
1 57444U 23105Q   24062.12496738  .00002963  00000+0  23425-3 0  9997
2 57444  43.0054 309.1977 0001186 272.9888  87.0819 15.02552145 34671
STARLINK-30215          
1 57445U 23105R   24062.12164401  .00006945  00000+0  52844-3 0  9998
2 57445  43.0039 309.1798 0001314 263.4037  96.6656 15.02552111 34454
STARLINK-30162          
1 57446U 23105S   24062.78668838 -.00000779  00000+0 -42605-4 0  9990
2 57446  43.0003 292.8280 0001143 263.3171  96.7541 15.02549929 34860
STARLINK-30178          
1 57447U 23105T   24061.86239380  .00002318  00000+0  18656-3 0  9992
2 57447  43.0033 310.6718 0001525 272.2995  87.7673 15.02545077 34581
STARLINK-30196          
1 57448U 23105U   24062.11830686  .00004548  00000+0  35142-3 0  9994
2 57448  43.0042 309.1502 0001680 256.5615 103.5040 15.02549918 34451
STARLINK-30225          
1 57449U 23105V   24061.71612050  .00001954  00000+0  15969-3 0  9996
2 57449  43.0018 311.2944 0001362 268.2045  91.8642 15.02540061 34618
STARLINK-30217          
1 57450U 23105W   24062.90302720  .00010727  00000+0  80770-3 0  9990
2 57450  43.0025 292.0306 0001549 270.1486  89.9179 15.02547543 34888
STARLINK-30216          
1 57451U 23105X   24062.11164947  .00006703  00000+0  51046-3 0  9994
2 57451  43.0029 309.1149 0001352 260.3445  99.7245 15.02560868 34479
STARLINK-30165          
1 57457U 23107A   24062.27295598  .00003726  00000+0  29061-3 0  9990
2 57457  43.0036  26.1530 0000629 287.9533  72.1241 15.02552951 34174
STARLINK-30140          
1 57458U 23107B   24062.00373459  .00000624  00000+0  61236-4 0  9990
2 57458  43.0039  27.5723 0000562 264.1629  95.9149 15.02535228 34141
STARLINK-30185          
1 57459U 23107C   24062.39925820  .00003889  00000+0  30263-3 0  9999
2 57459  43.0045  25.3797 0000966 256.4512 103.6223 15.02554230 34200
